[{"OBJECT_NAME":"STARLINK-30121","OBJECT_ID":"2023-067H","EPOCH":"2026-03-09T22:13:17.712480","MEAN_MOTION":15.02505,"ECCENTRICITY":7.559e-5,"INCLINATION":43.004,"RA_OF_ASC_NODE":273.3212,"ARG_OF_PERICENTER":289.4824,"MEAN_ANOMALY":70.5937,"EPHEMERIS_TYPE":0,"CLASSIFICATION_TYPE":"U","NORAD_CAT_ID":56695,"ELEMENT_SET_NO":999,"REV_AT_EPOCH":15569,"BSTAR":-0.00023730344,"MEAN_MOTION_DOT":-3.405e-5,"MEAN_MOTION_DDOT":0},{"OBJECT_NAME":"COSMOS 2251 DEB","OBJECT_ID":"1993-036BKG","EPOCH":"2026-03-09T09:02:46.626720","MEAN_MOTION":15.0055284,"ECCENTRICITY":0.00290136,"INCLINATION":74.0178,"RA_OF_ASC_NODE":205.5033,"ARG_OF_PERICENTER":262.6992,"MEAN_ANOMALY":97.0897,"EPHEMERIS_TYPE":0,"CLASSIFICATION_TYPE":"U","NORAD_CAT_ID":37316,"ELEMENT_SET_NO":999,"REV_AT_EPOCH":87440,"BSTAR":0.002851028,"MEAN_MOTION_DOT":0.00036448,"MEAN_MOTION_DDOT":0}]
